{
  "norad_id": 65089,
  "name": "STARLINK-34665",
  "history": [
    {
      "epoch": "2026-03-28T21:01:12.417888",
      "apogee_km": 475.96884504661466,
      "perigee_km": 474.374765418519,
      "latitude_deg": 40.356373087679884,
      "longitude_deg": 52.98046431993134,
      "semi_major_axis_km": 6853.308805232567,
      "eccentricity": 0.0001163,
      "inclination_deg": 53.1582,
      "raan_deg": 297.8015,
      "arg_perigee_deg": 64.0562,
      "mean_anomaly_deg": 296.0559,
      "mean_motion_rev_day": 15.3021449
    }
  ]
}